{
  "norad_id": 66352,
  "name": "STARLINK-35850",
  "history": [
    {
      "epoch": "2026-03-28T20:27:03.020256",
      "apogee_km": 475.93433793087024,
      "perigee_km": 474.4433283626113,
      "latitude_deg": -52.539835169140176,
      "longitude_deg": 177.00335583998822,
      "semi_major_axis_km": 6853.3258331467405,
      "eccentricity": 0.00010878,
      "inclination_deg": 53.1556,
      "raan_deg": 143.1523,
      "arg_perigee_deg": 72.3903,
      "mean_anomaly_deg": 287.7217,
      "mean_motion_rev_day": 15.30208787
    },
    {
      "epoch": "2026-03-29T04:17:18.994848",
      "apogee_km": 475.9484853753065,
      "perigee_km": 474.3818205031457,
      "latitude_deg": -18.747498207893983,
      "longitude_deg": -151.64556127996184,
      "semi_major_axis_km": 6853.302152939226,
      "eccentricity": 0.0001143,
      "inclination_deg": 53.1574,
      "raan_deg": 141.6369,
      "arg_perigee_deg": 84.6009,
      "mean_anomaly_deg": 275.5122,
      "mean_motion_rev_day": 15.30216718
    }
  ]
}